areaCode,lat,long,Country,Source
201,40.83885,-74.04567813,US,https://github.com/ravisorg/Area-Code-Geolocation-Database
202,38.89511,-77.03637,US,https://github.com/ravisorg/Area-Code-Geolocation-Database
203,41.29179813,-73.12245313,US,https://github.com/ravisorg/Area-Code-Geolocation-Database
204,51.20303364,-98.72993455,CA,https://github.com/ravisorg/Area-Code-Geolocation-Database
205,33.42767111,-86.88647333,US,https://github.com/ravisorg/Area-Code-Geolocation-Database
206,47.56402714,-122.3489757,US,https://github.com/ravisorg/Area-Code-Geolocation-Database
207,44.000005,-69.987965,US,https://github.com/ravisorg/Area-Code-Geolocation-Database
208,44.415674,-115.558462,US,https://github.com/ravisorg/Area-Code-Geolocation-Database
209,37.604049,-120.999087,US,https://github.com/ravisorg/Area-Code-Geolocation-Database
210,29.42412,-98.49363,US,https://github.com/ravisorg/Area-Code-Geolocation-Database
212,40.71427,-74.00597,US,https://github.com/ravisorg/Area-Code-Geolocation-Database
213,34.05223,-118.24368,US,https://github.com/ravisorg/Area-Code-Geolocation-Database
214,32.86350083,-96.83776792,US,https://github.com/ravisorg/Area-Code-Geolocation-Database
215,40.05372,-74.99628,US,https://github.com/ravisorg/Area-Code-Geolocation-Database
216,41.4749,-81.61689545,US,https://github.com/ravisorg/Area-Code-Geolocation-Database
217,39.91789571,-88.89502857,US,https://github.com/ravisorg/Area-Code-Geolocation-Database
218,46.29681,-94.05581,US,https://github.com/ravisorg/Area-Code-Geolocation-Database
219,41.56626333,-87.2636,US,https://github.com/ravisorg/Area-Code-Geolocation-Database
220,39.74919875,-82.66145,US,https://github.com/ravisorg/Area-Code-Geolocation-Database
223,40.1537775,-76.582255,US,Npas analysis - overlays of existing area codes in https://github.com/ravisorg/Area-Code-Geolocation-Database
224,42.14730875,-87.94760563,US,https://github.com/ravisorg/Area-Code-Geolocation-Database
225,30.45075,-91.15455,US,https://github.com/ravisorg/Area-Code-Geolocation-Database
226,43.23383118,-81.23092235,CA,https://github.com/ravisorg/Area-Code-Geolocation-Database
228,30.38862667,-88.84521333,US,https://github.com/ravisorg/Area-Code-Geolocation-Database
229,31.205925,-83.71803,US,https://github.com/ravisorg/Area-Code-Geolocation-Database
231,43.02465,-85.18177333,US,https://github.com/ravisorg/Area-Code-Geolocation-Database
234,41.06350444,-81.31462611,US,https://github.com/ravisorg/Area-Code-Geolocation-Database
236,50.43272529,-121.5153694,CA,https://github.com/ravisorg/Area-Code-Geolocation-Database
239,26.45611429,-81.80060857,US,https://github.com/ravisorg/Area-Code-Geolocation-Database
240,39.047505,-77.12127929,US,https://github.com/ravisorg/Area-Code-Geolocation-Database
248,42.54372462,-83.26242846,US,https://github.com/ravisorg/Area-Code-Geolocation-Database
249,46.04182286,-80.00328643,CA,https://github.com/ravisorg/Area-Code-Geolocation-Database
250,50.83725909,-121.84152,CA,https://github.com/ravisorg/Area-Code-Geolocation-Database
251,30.71658,-88.06097,US,https://github.com/ravisorg/Area-Code-Geolocation-Database
252,35.42039,-77.43325,US,https://github.com/ravisorg/Area-Code-Geolocation-Database
253,47.228641,-122.365951,US,https://github.com/ravisorg/Area-Code-Geolocation-Database
254,31.204726,-97.579188,US,https://github.com/ravisorg/Area-Code-Geolocation-Database
256,34.41824333,-86.63888167,US,https://github.com/ravisorg/Area-Code-Geolocation-Database
260,41.1306,-85.12886,US,https://github.com/ravisorg/Area-Code-Geolocation-Database
262,42.991375,-88.039892,US,https://github.com/ravisorg/Area-Code-Geolocation-Database
267,40.05372,-74.99628,US,https://github.com/ravisorg/Area-Code-Geolocation-Database
269,42.27005333,-85.44846333,US,https://github.com/ravisorg/Area-Code-Geolocation-Database
270,37.44057,-87.00663143,US,https://github.com/ravisorg/Area-Code-Geolocation-Database
272,41.238118,-76.10365,US,https://github.com/ravisorg/Area-Code-Geolocation-Database
276,37.55376,-77.46026,US,https://github.com/ravisorg/Area-Code-Geolocation-Database
279,38.54004235,-121.3983159,US,Npas analysis - overlays of existing area codes in https://github.com/ravisorg/Area-Code-Geolocation-Database
281,29.70917889,-95.30039889,US,https://github.com/ravisorg/Area-Code-Geolocation-Database
289,43.5654075,-79.333166,CA,https://github.com/ravisorg/Area-Code-Geolocation-Database
301,39.047505,-77.12127929,US,https://github.com/ravisorg/Area-Code-Geolocation-Database
302,39.52928,-75.60687333,US,https://github.com/ravisorg/Area-Code-Geolocation-Database
303,39.77755625,-105.0026667,US,https://github.com/ravisorg/Area-Code-Geolocation-Database
304,39.361145,-81.16209333,US,https://github.com/ravisorg/Area-Code-Geolocation-Database
305,25.74041704,-80.35898037,US,https://github.com/ravisorg/Area-Code-Geolocation-Database
306,51.39973636,-105.6886145,CA,https://github.com/ravisorg/Area-Code-Geolocation-Database
307,42.4022675,-105.5566625,US,https://github.com/ravisorg/Area-Code-Geolocation-Database
308,40.91612,-99.39630333,US,https://github.com/ravisorg/Area-Code-Geolocation-Database
309,40.93229,-89.85594333,US,https://github.com/ravisorg/Area-Code-Geolocation-Database
310,33.89912813,-118.3529044,US,https://github.com/ravisorg/Area-Code-Geolocation-Database
312,41.88475,-88.20396,US,https://github.com/ravisorg/Area-Code-Geolocation-Database
313,42.31222889,-83.20119111,US,https://github.com/ravisorg/Area-Code-Geolocation-Database
314,38.64949667,-90.32305333,US,https://github.com/ravisorg/Area-Code-Geolocation-Database
315,43.253676,-75.862524,US,https://github.com/ravisorg/Area-Code-Geolocation-Database
316,37.69224,-97.33754,US,https://github.com/ravisorg/Area-Code-Geolocation-Database
317,39.86670667,-86.07174333,US,https://github.com/ravisorg/Area-Code-Geolocation-Database
318,32.278824,-92.942602,US,https://github.com/ravisorg/Area-Code-Geolocation-Database
319,41.92194833,-91.77887833,US,https://github.com/ravisorg/Area-Code-Geolocation-Database
320,45.5608,-94.16249,US,https://github.com/ravisorg/Area-Code-Geolocation-Database
321,28.3756865,-81.1535335,US,https://github.com/ravisorg/Area-Code-Geolocation-Database
323,33.98717818,-118.2120055,US,https://github.com/ravisorg/Area-Code-Geolocation-Database
325,31.956255,-100.08509,US,https://github.com/ravisorg/Area-Code-Geolocation-Database
330,41.06350444,-81.31462611,US,https://github.com/ravisorg/Area-Code-Geolocation-Database
331,41.8771732,-88.0948236,US,https://github.com/ravisorg/Area-Code-Geolocation-Database
332,40.71427,-74.00597,US,Npas analysis - overlays of existing area codes in https://github.com/ravisorg/Area-Code-Geolocation-Database
334,32.187855,-85.86078875,US,https://github.com/ravisorg/Area-Code-Geolocation-Database
336,35.986358,-79.858592,US,https://github.com/ravisorg/Area-Code-Geolocation-Database
337,30.242168,-92.500372,US,https://github.com/ravisorg/Area-Code-Geolocation-Database
339,42.38921565,-71.10036565,US,https://github.com/ravisorg/Area-Code-Geolocation-Database
343,44.95518214,-76.08718,CA,https://github.com/ravisorg/Area-Code-Geolocation-Database
346,29.70917889,-95.30039889,US,https://github.com/ravisorg/Area-Code-Geolocation-Database
347,40.691608,-73.959668,US,https://github.com/ravisorg/Area-Code-Geolocation-Database
351,42.60368286,-71.22620857,US,https://github.com/ravisorg/Area-Code-Geolocation-Database
352,28.372005,-81.7805925,US,https://github.com/ravisorg/Area-Code-Geolocation-Database
360,47.41118222,-122.5702911,US,https://github.com/ravisorg/Area-Code-Geolocation-Database
361,28.04057333,-97.41869667,US,https://github.com/ravisorg/Area-Code-Geolocation-Database
364,37.44057,-87.00663143,US,https://github.com/ravisorg/Area-Code-Geolocation-Database
365,43.575115,-79.3496,CA,https://github.com/ravisorg/Area-Code-Geolocation-Database
367,47.26140744,-71.35332372,CA,Npas analysis - overlays of existing area codes in https://github.com/ravisorg/Area-Code-Geolocation-Database
380,40.008745,-83.0058775,US,Npas analysis - overlays of existing area codes in https://github.com/ravisorg/Area-Code-Geolocation-Database
385,40.65385643,-111.8801921,US,https://github.com/ravisorg/Area-Code-Geolocation-Database
386,29.16779857,-81.11085143,US,https://github.com/ravisorg/Area-Code-Geolocation-Database
401,41.773583,-71.418123,US,https://github.com/ravisorg/Area-Code-Geolocation-Database
402,41.23897143,-96.88106286,US,https://github.com/ravisorg/Area-Code-Geolocation-Database
403,51.2093535,-113.591395,CA,https://github.com/ravisorg/Area-Code-Geolocation-Database
404,33.73466889,-84.37236667,US,https://github.com/ravisorg/Area-Code-Geolocation-Database
405,35.504228,-97.413675,US,https://github.com/ravisorg/Area-Code-Geolocation-Database
406,46.40531,-111.567485,US,https://github.com/ravisorg/Area-Code-Geolocation-Database
407,28.39369067,-81.30824933,US,https://github.com/ravisorg/Area-Code-Geolocation-Database
408,37.26716556,-121.8848322,US,https://github.com/ravisorg/Area-Code-Geolocation-Database
409,29.66411,-94.436145,US,https://github.com/ravisorg/Area-Code-Geolocation-Database
410,39.24997871,-76.58799065,US,https://github.com/ravisorg/Area-Code-Geolocation-Database
412,40.39926667,-79.91952778,US,https://github.com/ravisorg/Area-Code-Geolocation-Database
413,42.19644625,-72.713425,US,https://github.com/ravisorg/Area-Code-Geolocation-Database
414,42.94616571,-87.95000714,US,https://github.com/ravisorg/Area-Code-Geolocation-Database
415,37.927565,-122.517545,US,https://github.com/ravisorg/Area-Code-Geolocation-Database
416,43.459085,-79.70173,CA,https://github.com/ravisorg/Area-Code-Geolocation-Database
417,37.14978,-93.90576,US,https://github.com/ravisorg/Area-Code-Geolocation-Database
418,47.21553809,-71.38443617,CA,https://github.com/ravisorg/Area-Code-Geolocation-Database
419,41.12878286,-83.21476,US,https://github.com/ravisorg/Area-Code-Geolocation-Database
423,35.84167714,-83.68173,US,https://github.com/ravisorg/Area-Code-Geolocation-Database
424,33.89912813,-118.3529044,US,https://github.com/ravisorg/Area-Code-Geolocation-Database
425,47.73323929,-121.8640779,US,https://github.com/ravisorg/Area-Code-Geolocation-Database
430,38.66688,-86.39125714,US,wikipedia audit
431,51.20303364,-98.72993455,CA,https://github.com/ravisorg/Area-Code-Geolocation-Database
432,32.03003333,-102.01847,US,https://github.com/ravisorg/Area-Code-Geolocation-Database
434,37.33949333,-79.01659333,US,https://github.com/ravisorg/Area-Code-Geolocation-Database
435,39.270445,-112.68724,US,https://github.com/ravisorg/Area-Code-Geolocation-Database
437,43.70011,-79.4163,CA,https://github.com/ravisorg/Area-Code-Geolocation-Database
438,45.5546,-73.88272,CA,https://github.com/ravisorg/Area-Code-Geolocation-Database
440,41.47965933,-81.69733133,US,https://github.com/ravisorg/Area-Code-Geolocation-Database
442,33.6695681,-116.7581124,US,https://github.com/ravisorg/Area-Code-Geolocation-Database
443,39.24997871,-76.58799065,US,https://github.com/ravisorg/Area-Code-Geolocation-Database
445,40.05372,-74.99628,US,Npas analysis - overlays of existing area codes in https://github.com/ravisorg/Area-Code-Geolocation-Database
450,45.78923277,-73.21601426,CA,https://github.com/ravisorg/Area-Code-Geolocation-Database
458,43.77279625,-123.1944163,US,https://github.com/ravisorg/Area-Code-Geolocation-Database
463,39.86670667,-86.07174333,US,Npas analysis - overlays of existing area codes in https://github.com/ravisorg/Area-Code-Geolocation-Database
463,39.86670667,-86.07174333,US,wikipedia audit
469,32.86905783,-96.82601565,US,https://github.com/ravisorg/Area-Code-Geolocation-Database
470,33.81447478,-84.36085522,US,Npas analysis - overlays of existing area codes in https://github.com/ravisorg/Area-Code-Geolocation-Database
475,41.29179813,-73.12245313,US,Npas analysis - overlays of existing area codes in https://github.com/ravisorg/Area-Code-Geolocation-Database
478,32.730835,-83.61615,US,https://github.com/ravisorg/Area-Code-Geolocation-Database
479,35.849136,-93.987424,US,https://github.com/ravisorg/Area-Code-Geolocation-Database
480,33.43175143,-111.7910643,US,https://github.com/ravisorg/Area-Code-Geolocation-Database
484,40.251023,-75.457804,US,https://github.com/ravisorg/Area-Code-Geolocation-Database
501,34.76818714,-92.42182286,US,https://github.com/ravisorg/Area-Code-Geolocation-Database
502,38.227575,-85.316345,US,https://github.com/ravisorg/Area-Code-Geolocation-Database
503,45.34785933,-122.7965427,US,https://github.com/ravisorg/Area-Code-Geolocation-Database
504,29.94127286,-90.09217714,US,https://github.com/ravisorg/Area-Code-Geolocation-Database
505,35.54517333,-107.1487933,US,https://github.com/ravisorg/Area-Code-Geolocation-Database
506,46.56609222,-66.06047556,CA,https://github.com/ravisorg/Area-Code-Geolocation-Database
507,44.04838833,-92.93543,US,https://github.com/ravisorg/Area-Code-Geolocation-Database
508,42.00699273,-71.22419455,US,https://github.com/ravisorg/Area-Code-Geolocation-Database
509,46.76512444,-118.7341211,US,https://github.com/ravisorg/Area-Code-Geolocation-Database
510,37.43248,-121.8074523,US,https://github.com/ravisorg/Area-Code-Geolocation-Database
512,30.359314,-97.772174,US,https://github.com/ravisorg/Area-Code-Geolocation-Database
513,39.34930286,-84.49883429,US,https://github.com/ravisorg/Area-Code-Geolocation-Database
514,46.126976,-73.355944,CA,https://github.com/ravisorg/Area-Code-Geolocation-Database
515,41.840495,-93.75476,US,https://github.com/ravisorg/Area-Code-Geolocation-Database
516,40.70185474,-73.59814053,US,https://github.com/ravisorg/Area-Code-Geolocation-Database
517,42.48702833,-84.13755167,US,https://github.com/ravisorg/Area-Code-Geolocation-Database
518,42.819186,-73.833068,US,https://github.com/ravisorg/Area-Code-Geolocation-Database
519,43.2104985,-81.1431145,CA,https://github.com/ravisorg/Area-Code-Geolocation-Database
520,32.11801571,-110.9764843,US,https://github.com/ravisorg/Area-Code-Geolocation-Database
530,39.33882286,-121.5665943,US,https://github.com/ravisorg/Area-Code-Geolocation-Database
531,41.23897143,-96.88106286,US,https://github.com/ravisorg/Area-Code-Geolocation-Database
534,45.25371,-90.7018125,US,Npas analysis - overlays of existing area codes in https://github.com/ravisorg/Area-Code-Geolocation-Database
539,36.1754425,-95.783525,US,https://github.com/ravisorg/Area-Code-Geolocation-Database
540,37.82954143,-79.50405714,US,https://github.com/ravisorg/Area-Code-Geolocation-Database
541,43.77279625,-123.1944163,US,https://github.com/ravisorg/Area-Code-Geolocation-Database
548,43.23383118,-81.23092235,CA,Npas analysis - overlays of existing area codes in https://github.com/ravisorg/Area-Code-Geolocation-Database
551,40.83885,-74.04567813,US,https://github.com/ravisorg/Area-Code-Geolocation-Database
559,36.50766,-119.5360325,US,https://github.com/ravisorg/Area-Code-Geolocation-Database
561,26.55579333,-80.13544083,US,https://github.com/ravisorg/Area-Code-Geolocation-Database
562,33.89795286,-118.0842771,US,https://github.com/ravisorg/Area-Code-Geolocation-Database
563,41.763524,-90.59797,US,https://github.com/ravisorg/Area-Code-Geolocation-Database
564,47.41118222,-122.5702911,US,Npas analysis - overlays of existing area codes in https://github.com/ravisorg/Area-Code-Geolocation-Database
567,41.12878286,-83.21476,US,https://github.com/ravisorg/Area-Code-Geolocation-Database
570,41.238118,-76.10365,US,https://github.com/ravisorg/Area-Code-Geolocation-Database
571,38.8324725,-77.270965,US,https://github.com/ravisorg/Area-Code-Geolocation-Database
573,38.27809667,-91.34191333,US,https://github.com/ravisorg/Area-Code-Geolocation-Database
574,41.672602,-86.066116,US,https://github.com/ravisorg/Area-Code-Geolocation-Database
575,33.02238333,-104.6389383,US,https://github.com/ravisorg/Area-Code-Geolocation-Database
579,45.75695865,-73.27781027,CA,https://github.com/ravisorg/Area-Code-Geolocation-Database
580,35.17099167,-97.964955,US,https://github.com/ravisorg/Area-Code-Geolocation-Database
581,47.26140744,-71.35332372,CA,https://github.com/ravisorg/Area-Code-Geolocation-Database
585,43.17191333,-77.58194333,US,https://github.com/ravisorg/Area-Code-Geolocation-Database
586,42.53975857,-82.97031714,US,https://github.com/ravisorg/Area-Code-Geolocation-Database
587,52.68835364,-113.7020895,CA,https://github.com/ravisorg/Area-Code-Geolocation-Database
601,32.19705429,-89.96107286,US,https://github.com/ravisorg/Area-Code-Geolocation-Database
602,33.44838,-112.07404,US,https://github.com/ravisorg/Area-Code-Geolocation-Database
603,43.04893875,-71.33472,US,https://github.com/ravisorg/Area-Code-Geolocation-Database
604,49.30576625,-122.9847563,CA,https://github.com/ravisorg/Area-Code-Geolocation-Database
605,44.472588,-99.176772,US,https://github.com/ravisorg/Area-Code-Geolocation-Database
606,38.47841,-82.63794,US,https://github.com/ravisorg/Area-Code-Geolocation-Database
607,42.20970667,-76.40743667,US,https://github.com/ravisorg/Area-Code-Geolocation-Database
608,43.042495,-89.563915,US,https://github.com/ravisorg/Area-Code-Geolocation-Database
609,39.9697625,-74.7087,US,https://github.com/ravisorg/Area-Code-Geolocation-Database
610,40.251023,-75.457804,US,https://github.com/ravisorg/Area-Code-Geolocation-Database
612,44.9708,-93.32084,US,https://github.com/ravisorg/Area-Code-Geolocation-Database
613,44.93638471,-76.40218471,CA,https://github.com/ravisorg/Area-Code-Geolocation-Database
614,40.008745,-83.0058775,US,https://github.com/ravisorg/Area-Code-Geolocation-Database
615,36.10672375,-86.5878425,US,https://github.com/ravisorg/Area-Code-Geolocation-Database
616,42.915765,-85.73082,US,https://github.com/ravisorg/Area-Code-Geolocation-Database
617,42.34858182,-71.10012727,US,https://github.com/ravisorg/Area-Code-Geolocation-Database
618,38.56595375,-89.9325675,US,https://github.com/ravisorg/Area-Code-Geolocation-Database
619,32.72058333,-117.0466042,US,https://github.com/ravisorg/Area-Code-Geolocation-Database
620,38.0473075,-98.7502925,US,https://github.com/ravisorg/Area-Code-Geolocation-Database
623,33.5849,-112.2981217,US,https://github.com/ravisorg/Area-Code-Geolocation-Database
626,34.0783752,-118.0051808,US,https://github.com/ravisorg/Area-Code-Geolocation-Database
628,37.927565,-122.517545,US,https://github.com/ravisorg/Area-Code-Geolocation-Database
629,36.10672375,-86.5878425,US,https://github.com/ravisorg/Area-Code-Geolocation-Database
630,41.8771732,-88.0948236,US,https://github.com/ravisorg/Area-Code-Geolocation-Database
631,40.79404826,-73.20643,US,https://github.com/ravisorg/Area-Code-Geolocation-Database
636,38.70597833,-90.598965,US,https://github.com/ravisorg/Area-Code-Geolocation-Database
639,51.636756,-106.001166,CA,https://github.com/ravisorg/Area-Code-Geolocation-Database
640,39.9697625,-74.7087,US,Npas analysis - overlays of existing area codes in https://github.com/ravisorg/Area-Code-Geolocation-Database
641,42.07433667,-92.84010667,US,https://github.com/ravisorg/Area-Code-Geolocation-Database
646,40.71427,-74.00597,US,https://github.com/ravisorg/Area-Code-Geolocation-Database
647,43.70011,-79.4163,CA,https://github.com/ravisorg/Area-Code-Geolocation-Database
650,37.53483375,-122.2846556,US,https://github.com/ravisorg/Area-Code-Geolocation-Database
651,44.91242571,-93.08408786,US,https://github.com/ravisorg/Area-Code-Geolocation-Database
657,33.80470067,-117.9245227,US,https://github.com/ravisorg/Area-Code-Geolocation-Database
660,38.70446,-93.22826,US,https://github.com/ravisorg/Area-Code-Geolocation-Database
661,35.11786571,-118.7745786,US,https://github.com/ravisorg/Area-Code-Geolocation-Database
662,34.10931429,-89.63233286,US,https://github.com/ravisorg/Area-Code-Geolocation-Database
667,39.24997871,-76.58799065,US,https://github.com/ravisorg/Area-Code-Geolocation-Database
669,37.26716556,-121.8848322,US,https://github.com/ravisorg/Area-Code-Geolocation-Database
678,33.81447478,-84.36085522,US,https://github.com/ravisorg/Area-Code-Geolocation-Database
680,43.253676,-75.862524,US,Npas analysis - overlays of existing area codes in https://github.com/ravisorg/Area-Code-Geolocation-Database
681,39.361145,-81.16209333,US,https://github.com/ravisorg/Area-Code-Geolocation-Database
682,32.75957533,-97.22340333,US,https://github.com/ravisorg/Area-Code-Geolocation-Database
701,47.4602675,-99.003305,US,https://github.com/ravisorg/Area-Code-Geolocation-Database
702,36.14052714,-115.1143643,US,https://github.com/ravisorg/Area-Code-Geolocation-Database
703,38.8324725,-77.270965,US,https://github.com/ravisorg/Area-Code-Geolocation-Database
704,35.36768556,-80.74773778,US,https://github.com/ravisorg/Area-Code-Geolocation-Database
705,45.7227065,-80.313261,CA,https://github.com/ravisorg/Area-Code-Geolocation-Database
706,33.63948429,-83.94034,US,https://github.com/ravisorg/Area-Code-Geolocation-Database
707,38.51422909,-122.5273573,US,https://github.com/ravisorg/Area-Code-Geolocation-Database
708,41.70573476,-87.72693048,US,https://github.com/ravisorg/Area-Code-Geolocation-Database
709,48.94973286,-55.95987714,CA,https://github.com/ravisorg/Area-Code-Geolocation-Database
712,41.880965,-96.13057,US,https://github.com/ravisorg/Area-Code-Geolocation-Database
713,29.70917889,-95.30039889,US,https://github.com/ravisorg/Area-Code-Geolocation-Database
714,33.80470067,-117.9245227,US,https://github.com/ravisorg/Area-Code-Geolocation-Database
715,45.25371,-90.7018125,US,https://github.com/ravisorg/Area-Code-Geolocation-Database
716,42.87564,-78.89547375,US,https://github.com/ravisorg/Area-Code-Geolocation-Database
717,40.1537775,-76.582255,US,https://github.com/ravisorg/Area-Code-Geolocation-Database
718,40.691608,-73.959668,US,https://github.com/ravisorg/Area-Code-Geolocation-Database
719,38.64372,-104.7528333,US,https://github.com/ravisorg/Area-Code-Geolocation-Database
720,39.77755625,-105.0026667,US,https://github.com/ravisorg/Area-Code-Geolocation-Database
724,40.565275,-79.9919975,US,https://github.com/ravisorg/Area-Code-Geolocation-Database
725,36.14052714,-115.1143643,US,https://github.com/ravisorg/Area-Code-Geolocation-Database
726,29.42412,-98.49363,US,Npas analysis - overlays of existing area codes in https://github.com/ravisorg/Area-Code-Geolocation-Database
727,28.006899,-82.736329,US,https://github.com/ravisorg/Area-Code-Geolocation-Database
731,35.61452,-88.81395,US,https://github.com/ravisorg/Area-Code-Geolocation-Database
732,40.42072143,-74.32367929,US,https://github.com/ravisorg/Area-Code-Geolocation-Database
734,42.25120273,-83.41347636,US,https://github.com/ravisorg/Area-Code-Geolocation-Database
737,30.359314,-97.772174,US,https://github.com/ravisorg/Area-Code-Geolocation-Database
740,39.74919875,-82.66145,US,https://github.com/ravisorg/Area-Code-Geolocation-Database
743,35.986358,-79.858592,US,https://github.com/ravisorg/Area-Code-Geolocation-Database
747,34.186115,-118.4355433,US,https://github.com/ravisorg/Area-Code-Geolocation-Database
754,26.14313842,-80.20192526,US,https://github.com/ravisorg/Area-Code-Geolocation-Database
757,36.87017143,-76.31351429,US,https://github.com/ravisorg/Area-Code-Geolocation-Database
760,33.6695681,-116.7581124,US,https://github.com/ravisorg/Area-Code-Geolocation-Database
762,33.63948429,-83.94034,US,https://github.com/ravisorg/Area-Code-Geolocation-Database
763,45.09851444,-93.35914889,US,https://github.com/ravisorg/Area-Code-Geolocation-Database
765,40.28916857,-85.93796143,US,https://github.com/ravisorg/Area-Code-Geolocation-Database
769,32.19705429,-89.96107286,US,https://github.com/ravisorg/Area-Code-Geolocation-Database
770,33.8336605,-84.3569235,US,https://github.com/ravisorg/Area-Code-Geolocation-Database
772,27.37194,-80.3461,US,https://github.com/ravisorg/Area-Code-Geolocation-Database
773,41.88475,-88.20396,US,https://github.com/ravisorg/Area-Code-Geolocation-Database
774,42.00699273,-71.22419455,US,https://github.com/ravisorg/Area-Code-Geolocation-Database
775,38.6091575,-118.82945,US,https://github.com/ravisorg/Area-Code-Geolocation-Database
778,50.3371798,-122.2148216,CA,https://github.com/ravisorg/Area-Code-Geolocation-Database
779,42.05086917,-88.6227275,US,https://github.com/ravisorg/Area-Code-Geolocation-Database
780,53.9300256,-113.8699808,CA,https://github.com/ravisorg/Area-Code-Geolocation-Database
781,42.38921565,-71.10036565,US,https://github.com/ravisorg/Area-Code-Geolocation-Database
782,45.0743675,-63.865825,CA,https://github.com/ravisorg/Area-Code-Geolocation-Database
785,38.984614,-96.88463,US,https://github.com/ravisorg/Area-Code-Geolocation-Database
786,25.74041704,-80.35898037,US,https://github.com/ravisorg/Area-Code-Geolocation-Database
801,40.65385643,-111.8801921,US,https://github.com/ravisorg/Area-Code-Geolocation-Database
802,44.363525,-72.873175,US,https://github.com/ravisorg/Area-Code-Geolocation-Database
803,34.08893,-81.057868,US,https://github.com/ravisorg/Area-Code-Geolocation-Database
804,37.456984,-77.415816,US,https://github.com/ravisorg/Area-Code-Geolocation-Database
805,34.60204125,-119.6962594,US,https://github.com/ravisorg/Area-Code-Geolocation-Database
806,34.32821667,-101.79777,US,https://github.com/ravisorg/Area-Code-Geolocation-Database
807,47.495825,-88.84699,CA,https://github.com/ravisorg/Area-Code-Geolocation-Database
808,20.95603556,-157.2379267,US,https://github.com/ravisorg/Area-Code-Geolocation-Database
810,42.99428667,-83.24290333,US,https://github.com/ravisorg/Area-Code-Geolocation-Database
812,38.66688,-86.39125714,US,https://github.com/ravisorg/Area-Code-Geolocation-Database
813,28.04743889,-82.42785889,US,https://github.com/ravisorg/Area-Code-Geolocation-Database
814,40.9420075,-78.8154425,US,https://github.com/ravisorg/Area-Code-Geolocation-Database
815,42.05086917,-88.6227275,US,https://github.com/ravisorg/Area-Code-Geolocation-Database
816,39.104366,-94.500676,US,https://github.com/ravisorg/Area-Code-Geolocation-Database
817,32.75957533,-97.22340333,US,https://github.com/ravisorg/Area-Code-Geolocation-Database
818,34.186115,-118.4355433,US,https://github.com/ravisorg/Area-Code-Geolocation-Database
819,46.339735,-73.46564028,CA,https://github.com/ravisorg/Area-Code-Geolocation-Database
820,34.60204125,-119.6962594,US,Npas analysis - overlays of existing area codes in https://github.com/ravisorg/Area-Code-Geolocation-Database
825,53.548798,-113.321158,CA,https://github.com/ravisorg/Area-Code-Geolocation-Database
828,35.66707,-81.94761,US,https://github.com/ravisorg/Area-Code-Geolocation-Database
830,29.478228,-99.325156,US,https://github.com/ravisorg/Area-Code-Geolocation-Database
831,36.75860714,-121.7704657,US,https://github.com/ravisorg/Area-Code-Geolocation-Database
832,29.70917889,-95.30039889,US,https://github.com/ravisorg/Area-Code-Geolocation-Database
838,42.819186,-73.833068,US,Npas analysis - overlays of existing area codes in https://github.com/ravisorg/Area-Code-Geolocation-Database
843,33.0913225,-79.901955,US,https://github.com/ravisorg/Area-Code-Geolocation-Database
845,41.47292,-74.06412333,US,https://github.com/ravisorg/Area-Code-Geolocation-Database
847,42.14730875,-87.94760563,US,https://github.com/ravisorg/Area-Code-Geolocation-Database
848,40.42072143,-74.32367929,US,https://github.com/ravisorg/Area-Code-Geolocation-Database
850,30.41866889,-86.61346,US,https://github.com/ravisorg/Area-Code-Geolocation-Database
854,33.0913225,-79.901955,US,https://github.com/ravisorg/Area-Code-Geolocation-Database
856,39.73721857,-75.05378571,US,https://github.com/ravisorg/Area-Code-Geolocation-Database
857,42.34858182,-71.10012727,US,https://github.com/ravisorg/Area-Code-Geolocation-Database
858,32.96282,-117.03586,US,https://github.com/ravisorg/Area-Code-Geolocation-Database
859,38.4547925,-84.4768825,US,https://github.com/ravisorg/Area-Code-Geolocation-Database
860,41.67400917,-72.64104167,US,https://github.com/ravisorg/Area-Code-Geolocation-Database
862,40.82511286,-74.21640333,US,https://github.com/ravisorg/Area-Code-Geolocation-Database
863,28.030855,-81.84133,US,https://github.com/ravisorg/Area-Code-Geolocation-Database
864,34.72085833,-82.29456333,US,https://github.com/ravisorg/Area-Code-Geolocation-Database
865,35.9344575,-84.10762,US,https://github.com/ravisorg/Area-Code-Geolocation-Database
867,62.30636,-105.9745233,CA,https://github.com/ravisorg/Area-Code-Geolocation-Database
870,34.65417167,-91.68221833,US,https://github.com/ravisorg/Area-Code-Geolocation-Database
872,41.88475,-88.20396,US,Npas analysis - overlays of existing area codes in https://github.com/ravisorg/Area-Code-Geolocation-Database
873,46.46909136,-74.10479409,CA,https://github.com/ravisorg/Area-Code-Geolocation-Database
878,40.459707,-79.962276,US,https://github.com/ravisorg/Area-Code-Geolocation-Database
901,35.120715,-89.849395,US,https://github.com/ravisorg/Area-Code-Geolocation-Database
902,45.44152167,-63.15571417,CA,https://github.com/ravisorg/Area-Code-Geolocation-Database
903,33.01201111,-95.52637667,US,https://github.com/ravisorg/Area-Code-Geolocation-Database
904,30.25227667,-81.60564667,US,https://github.com/ravisorg/Area-Code-Geolocation-Database
905,43.5654075,-79.333166,CA,https://github.com/ravisorg/Area-Code-Geolocation-Database
906,46.233333,-86.35,,wikipedia audit
907,60.26835333,-141.136315,US,https://github.com/ravisorg/Area-Code-Geolocation-Database
908,40.66289727,-74.28977364,US,https://github.com/ravisorg/Area-Code-Geolocation-Database
909,34.074295,-117.5405572,US,https://github.com/ravisorg/Area-Code-Geolocation-Database
910,34.757956,-78.453958,US,https://github.com/ravisorg/Area-Code-Geolocation-Database
912,32.12640333,-81.49298333,US,https://github.com/ravisorg/Area-Code-Geolocation-Database
913,39.0303175,-94.718015,US,https://github.com/ravisorg/Area-Code-Geolocation-Database
914,41.026625,-73.8051675,US,https://github.com/ravisorg/Area-Code-Geolocation-Database
915,31.70664,-106.39512,US,https://github.com/ravisorg/Area-Code-Geolocation-Database
916,38.54004235,-121.3983159,US,https://github.com/ravisorg/Area-Code-Geolocation-Database
917,40.695385,-73.967385,US,https://github.com/ravisorg/Area-Code-Geolocation-Database
918,36.1754425,-95.783525,US,https://github.com/ravisorg/Area-Code-Geolocation-Database
919,35.72614286,-78.77469,US,https://github.com/ravisorg/Area-Code-Geolocation-Database
920,43.948076,-88.281434,US,https://github.com/ravisorg/Area-Code-Geolocation-Database
925,37.89177667,-121.935052,US,https://github.com/ravisorg/Area-Code-Geolocation-Database
928,34.3190475,-113.5519425,US,https://github.com/ravisorg/Area-Code-Geolocation-Database
929,40.691608,-73.959668,US,https://github.com/ravisorg/Area-Code-Geolocation-Database
930,38.66688,-86.39125714,US,https://github.com/ravisorg/Area-Code-Geolocation-Database
931,36.10256,-86.63212333,US,https://github.com/ravisorg/Area-Code-Geolocation-Database
934,40.79404826,-73.20643,US,Npas analysis - overlays of existing area codes in https://github.com/ravisorg/Area-Code-Geolocation-Database
936,30.99429,-95.097855,US,https://github.com/ravisorg/Area-Code-Geolocation-Database
937,39.85426692,-84.11555769,US,https://github.com/ravisorg/Area-Code-Geolocation-Database
938,34.41824333,-86.63888167,US,Npas analysis - overlays of existing area codes in https://github.com/ravisorg/Area-Code-Geolocation-Database
940,33.39159333,-97.54021,US,https://github.com/ravisorg/Area-Code-Geolocation-Database
941,27.20213333,-82.34435167,US,https://github.com/ravisorg/Area-Code-Geolocation-Database
947,42.54372462,-83.26242846,US,https://github.com/ravisorg/Area-Code-Geolocation-Database
949,33.57348615,-117.7337162,US,https://github.com/ravisorg/Area-Code-Geolocation-Database
951,33.819667,-117.258786,US,https://github.com/ravisorg/Area-Code-Geolocation-Database
952,44.838195,-93.4117575,US,https://github.com/ravisorg/Area-Code-Geolocation-Database
954,26.14313842,-80.20192526,US,https://github.com/ravisorg/Area-Code-Geolocation-Database
956,26.299599,-98.138061,US,https://github.com/ravisorg/Area-Code-Geolocation-Database
959,41.67400917,-72.64104167,US,https://github.com/ravisorg/Area-Code-Geolocation-Database
970,40.11755,-105.854795,US,https://github.com/ravisorg/Area-Code-Geolocation-Database
971,45.34785933,-122.7965427,US,https://github.com/ravisorg/Area-Code-Geolocation-Database
972,32.86905783,-96.82601565,US,https://github.com/ravisorg/Area-Code-Geolocation-Database
973,40.83461737,-74.21941579,US,https://github.com/ravisorg/Area-Code-Geolocation-Database
978,42.60368286,-71.22620857,US,https://github.com/ravisorg/Area-Code-Geolocation-Database
979,30.11206667,-96.04625333,US,https://github.com/ravisorg/Area-Code-Geolocation-Database
980,35.36768556,-80.74773778,US,https://github.com/ravisorg/Area-Code-Geolocation-Database
984,35.72614286,-78.77469,US,https://github.com/ravisorg/Area-Code-Geolocation-Database
985,29.97931333,-90.32739,US,https://github.com/ravisorg/Area-Code-Geolocation-Database
986,44.415674,-115.558462,US,Npas analysis - overlays of existing area codes in https://github.com/ravisorg/Area-Code-Geolocation-Database
989,43.52936,-84.16104,US,https://github.com/ravisorg/Area-Code-Geolocation-Database